{
  "type": "FeatureCollection",
  "features": [
    {
      "type": "Feature",
      "properties": {
        "name": "TSA22"
      },
      "geometry": {
		"type": "Polygon",
        "coordinates": [
          [
            [
              19.618333,
              53.468889
            ],
            [
              19.701111,
              53.276944
            ],
            [
              19.769722,
              53.116389
            ],
            [
              20.257222,
              52.854444
            ],
            [
              20.412222,
              52.770278
            ],
            [
              20.767222,
              52.710278
            ],
            [
              20.990556,
              52.698611
            ],
            [
              21.212222,
              52.686389
            ],
            [
              21.735278,
              52.758333
            ],
            [
              22.298889,
              52.832778
            ],
            [
              22.599167,
              53.707778
            ],
            [
              22.471389,
              53.775
            ],
            [
              22.341389,
              53.7725
            ],
            [
              21.850833,
              53.762778
            ],
            [
              19.618333,
              53.468889
            ]
          ]
        ]
      }
    },
    {
      "type": "Feature",
      "properties": {
        "name": "TSA26"
      },
      "geometry": {
		"type": "Polygon",
        "coordinates": [
          [
            [
              17.655556,
              51.254444
            ],
            [
              17.7025,
              51.1
            ],
            [
              18.51,
              50.718889
            ],
            [
              19.112778,
              50.774722
            ],
            [
              19.507778,
              50.809444
            ],
            [
              19.657778,
              50.938056
            ],
            [
              19.652778,
              51.006111
            ],
            [
              19.621111,
              51.435
            ],
            [
              18.396389,
              51.423889
            ],
            [
              18.190556,
              51.377222
            ],
            [
              17.655556,
              51.254444
            ]
          ]
        ]
      }
    },
    {
      "type": "Feature",
      "properties": {
        "name": "TSA28"
      },
      "geometry": {
		"type": "Polygon",
        "coordinates": [
          [
            [
              17.079444,
              52.791111
            ],
            [
              17.158889,
              52.521389
            ],
            [
              17.346389,
              52.460278
            ],
            [
              17.383333,
              52.412222
            ],
            [
              17.636389,
              52.308889
            ],
            [
              18.553333,
              52.386667
            ],
            [
              18.895,
              52.413611
            ],
            [
              18.933889,
              52.664167
            ],
            [
              18.968889,
              52.885833
            ],
            [
              18.896389,
              53.025556
            ],
            [
              18.743333,
              53.317222
            ],
            [
              17.135278,
              52.992222
            ],
            [
              17.079444,
              52.791111
            ]
          ]
        ]
      }
    },
    {
      "type": "Feature",
      "properties": {
        "name": "TSA29"
      },
      "geometry": {
		"type": "Polygon",
        "coordinates": [
          [
            [
              15.694722222222222,
              53.4205556
            ],
            [
              15.964166666666666,
              53.0661111
            ],
            [
              16.576944444444443,
              53.1883333
            ],
            [
              16.612222222222222,
              53.2316667
            ],
            [
              17.358611111111113,
              53.3952778
            ],
            [
              18.1475,
              53.5619444
            ],
            [
              17.652777777777775,
              53.7488889
            ],
            [
              17.023055555555555,
              53.9813889
            ],
            [
              16.745,
              53.8663889
            ],
            [
              16.586666666666666,
              53.8016667
            ],
            [
              16.376944444444444,
              53.7122222
            ],
            [
              16.072777777777777,
              53.5830556
            ],
            [
              15.694722222222222,
              53.4205556
            ]
          ]
        ]
      }
    }
  ]
}